{"type": "FeatureCollection", "features": [ {"type": "Feature", "properties": {"norad_id": 33867, "name": "IRIDIUM 33 DEB", "group": "iridium-33-debris", "lat": 31.124971552763487, "lon": 172.76041396612894, "alt_km": 399.2679738661691, "timestamp": "2025-12-03T06:58:43.626422+00:00", "meta": {"OBJECT_NAME": "IRIDIUM 33 DEB", "OBJECT_ID": "1997-051AL", "EPOCH": "2025-12-02T13:20:02.989824", "MEAN_MOTION": 15.53021793, "ECCENTRICITY": 0.0011961, "INCLINATION": 86.3627, "RA_OF_ASC_NODE": 355.3354, "ARG_OF_PERICENTER": 101.6742, "MEAN_ANOMALY": 258.5862, "EPHEMERIS_TYPE": 0, "CLASSIFICATION_TYPE": "U", "NORAD_CAT_ID": 33867, "ELEMENT_SET_NO": 999, "REV_AT_EPOCH": 89352, "BSTAR": 0.0069764996, "MEAN_MOTION_DOT": 0.00460983, "MEAN_MOTION_DDOT": 0}, "tle": {"line1": "1 33867U 97051AL  25336.55559016  .00460983  00000+0  69765-2 0  9998", "line2": "2 33867  86.3627 355.3354 0011961 101.6742 258.5862 15.53021793893527"}}, "geometry": {"type": "Point", "coordinates": [172.76041396612894, 31.124971552763487]}}, {"type": "Feature", "properties": {"norad_id": 33870, "name": "IRIDIUM 33 DEB", "group": "iridium-33-debris", "lat": 43.407402169923564, "lon": -121.12668577532956, "alt_km": 731.7805334727964, "timestamp": "2025-12-03T06:58:43.626433+00:00", "meta": {"OBJECT_NAME": "IRIDIUM 33 DEB", "OBJECT_ID": "1997-051AP", "EPOCH": "2025-12-02T15:58:47.326656", "MEAN_MOTION": 14.45755935, "ECCENTRICITY": 0.0020412, "INCLINATION": 86.3757, "RA_OF_ASC_NODE": 62.5781, "ARG_OF_PERICENTER": 211.7311, "MEAN_ANOMALY": 274.2392, "EPHEMERIS_TYPE": 0, "CLASSIFICATION_TYPE": "U", "NORAD_CAT_ID": 33870, "ELEMENT_SET_NO": 999, "REV_AT_EPOCH": 87991, "BSTAR": 0.0011570122, "MEAN_MOTION_DOT": 4.129e-05, "MEAN_MOTION_DDOT": 0}, "tle": {"line1": "1 33870U 97051AP  25336.66582554  .00004129  00000+0  11570-2 0  9994", "line2": "2 33870  86.3757  62.5781 0020412 211.7311 274.2392 14.45755935879914"}}, "geometry": {"type": "Point", "coordinates": [-121.12668577532956, 43.407402169923564]}}, {"type": "Feature", "properties": {"norad_id": 33881, "name": "IRIDIUM 33 DEB", "group": "iridium-33-debris", "lat": 4.06261929463233, "lon": 111.10359386413177, "alt_km": 748.105919864056, "timestamp": "2025-12-03T06:58:43.626443+00:00", "meta": {"OBJECT_NAME": "IRIDIUM 33 DEB", "OBJECT_ID": "1997-051BA", "EPOCH": "2025-12-02T19:57:47.822400", "MEAN_MOTION": 14.56277041, "ECCENTRICITY": 0.0061124, "INCLINATION": 86.3866, "RA_OF_ASC_NODE": 111.0458, "ARG_OF_PERICENTER": 206.7741, "MEAN_ANOMALY": 272.4639, "EPHEMERIS_TYPE": 0, "CLASSIFICATION_TYPE": "U", "NORAD_CAT_ID": 33881, "ELEMENT_SET_NO": 999, "REV_AT_EPOCH": 87356, "BSTAR": 0.0024223, "MEAN_MOTION_DOT": 0.00011022, "MEAN_MOTION_DDOT": 0}, "tle": {"line1": "1 33881U 97051BA  25336.83180350  .00011022  00000+0  24223-2 0  9992", "line2": "2 33881  86.3866 111.0458 0061124 206.7741 272.4639 14.56277041873562"}}, "geometry": {"type": "Point", "coordinates": [111.10359386413177, 4.06261929463233]}}, {"type": "Feature", "properties": {"norad_id": 33884, "name": "IRIDIUM 33 DEB", "group": "iridium-33-debris", "lat": -37.69481910466459, "lon": 11.27181863916656, "alt_km": 638.815822759756, "timestamp": "2025-12-03T06:58:43.626453+00:00", "meta": {"OBJECT_NAME": "IRIDIUM 33 DEB", "OBJECT_ID": "1997-051BD", "EPOCH": "2025-12-02T20:33:53.927424", "MEAN_MOTION": 14.77123988, "ECCENTRICITY": 0.0010733, "INCLINATION": 86.3703, "RA_OF_ASC_NODE": 14.2791, "ARG_OF_PERICENTER": 359.9957, "MEAN_ANOMALY": 176.5315, "EPHEMERIS_TYPE": 0, "CLASSIFICATION_TYPE": "U", "NORAD_CAT_ID": 33884, "ELEMENT_SET_NO": 999, "REV_AT_EPOCH": 88701, "BSTAR": 0.0016779, "MEAN_MOTION_DOT": 0.000119, "MEAN_MOTION_DDOT": 0}, "tle": {"line1": "1 33884U 97051BD  25336.85687416  .00011900  00000+0  16779-2 0  9994", "line2": "2 33884  86.3703  14.2791 0010733 359.9957 176.5315 14.77123988887012"}}, "geometry": {"type": "Point", "coordinates": [11.27181863916656, -37.69481910466459]}}, {"type": "Feature", "properties": {"norad_id": 33886, "name": "IRIDIUM 33 DEB", "group": "iridium-33-debris", "lat": -28.945135175928055, "lon": -106.79000101760192, "alt_km": 774.5380784810804, "timestamp": "2025-12-03T06:58:43.626464+00:00", "meta": {"OBJECT_NAME": "IRIDIUM 33 DEB", "OBJECT_ID": "1997-051BF", "EPOCH": "2025-12-02T18:50:03.765984", "MEAN_MOTION": 14.36031496, "ECCENTRICITY": 0.0012058, "INCLINATION": 86.3833, "RA_OF_ASC_NODE": 71.4183, "ARG_OF_PERICENTER": 279.8713, "MEAN_ANOMALY": 194.8492, "EPHEMERIS_TYPE": 0, "CLASSIFICATION_TYPE": "U", "NORAD_CAT_ID": 33886, "ELEMENT_SET_NO": 999, "REV_AT_EPOCH": 87909, "BSTAR": 0.00028159, "MEAN_MOTION_DOT": 8.38e-06, "MEAN_MOTION_DDOT": 0}, "tle": {"line1": "1 33886U 97051BF  25336.78476581  .00000838  00000+0  28159-3 0  9991", "line2": "2 33886  86.3833  71.4183 0012058 279.8713 194.8492 14.36031496879095"}}, "geometry": {"type": "Point", "coordinates": [-106.79000101760192, -28.945135175928055]}}, {"type": "Feature", "properties": {"norad_id": 33887, "name": "IRIDIUM 33 DEB", "group": "iridium-33-debris", "lat": 74.0926894974666, "lon": 174.3596804728466, "alt_km": 763.574139346525, "timestamp": "2025-12-03T06:58:43.626474+00:00", "meta": {"OBJECT_NAME": "IRIDIUM 33 DEB", "OBJECT_ID": "1997-051BG", "EPOCH": "2025-12-02T14:22:15.828384", "MEAN_MOTION": 14.37206351, "ECCENTRICITY": 0.00040384, "INCLINATION": 86.3053, "RA_OF_ASC_NODE": 7.7621, "ARG_OF_PERICENTER": 275.4272, "MEAN_ANOMALY": 211.9937, "EPHEMERIS_TYPE": 0, "CLASSIFICATION_TYPE": "U", "NORAD_CAT_ID": 33887, "ELEMENT_SET_NO": 999, "REV_AT_EPOCH": 88019, "BSTAR": 0.00019180261, "MEAN_MOTION_DOT": 5.9e-06, "MEAN_MOTION_DDOT": 0}, "tle": {"line1": "1 33887U 97051BG  25336.59879431  .00000590  00000+0  19180-3 0  9991", "line2": "2 33887  86.3053   7.7621 0004038 275.4272 211.9937 14.37206351880193"}}, "geometry": {"type": "Point", "coordinates": [174.3596804728466, 74.0926894974666]}}, {"type": "Feature", "properties": {"norad_id": 33953, "name": "IRIDIUM 33 DEB", "group": "iridium-33-debris", "lat": 67.93338801369543, "lon": 66.85079306661947, "alt_km": 696.4347035605715, "timestamp": "2025-12-03T06:58:43.626485+00:00", "meta": {"OBJECT_NAME": "IRIDIUM 33 DEB", "OBJECT_ID": "1997-051BN", "EPOCH": "2025-12-02T16:23:53.820384", "MEAN_MOTION": 14.55150368, "ECCENTRICITY": 0.0018426, "INCLINATION": 86.3853, "RA_OF_ASC_NODE": 58.1431, "ARG_OF_PERICENTER": 133.5713, "MEAN_ANOMALY": 354.392, "EPHEMERIS_TYPE": 0, "CLASSIFICATION_TYPE": "U", "NORAD_CAT_ID": 33953, "ELEMENT_SET_NO": 999, "REV_AT_EPOCH": 88157, "BSTAR": 0.0017185, "MEAN_MOTION_DOT": 7.461e-05, "MEAN_MOTION_DDOT": 0}, "tle": {"line1": "1 33953U 97051BN  25336.68326181  .00007461  00000+0  17185-2 0  9990", "line2": "2 33953  86.3853  58.1431 0018426 133.5713 354.3920 14.55150368881577"}}, "geometry": {"type": "Point", "coordinates": [66.85079306661947, 67.93338801369543]}}, {"type": "Feature", "properties": {"norad_id": 33960, "name": "IRIDIUM 33 DEB", "group": "iridium-33-debris", "lat": -51.03027812117863, "lon": -70.68100740704244, "alt_km": 625.3538689035204, "timestamp": "2025-12-03T06:58:43.626496+00:00", "meta": {"OBJECT_NAME": "IRIDIUM 33 DEB", "OBJECT_ID": "1997-051BV", "EPOCH": "2025-12-02T15:48:46.343808", "MEAN_MOTION": 14.84325358, "ECCENTRICITY": 0.00069432, "INCLINATION": 86.2528, "RA_OF_ASC_NODE": 294.2638, "ARG_OF_PERICENTER": 75.6151, "MEAN_ANOMALY": 98.859, "EPHEMERIS_TYPE": 0, "CLASSIFICATION_TYPE": "U", "NORAD_CAT_ID": 33960, "ELEMENT_SET_NO": 999, "REV_AT_EPOCH": 88717, "BSTAR": 0.0041782629, "MEAN_MOTION_DOT": 0.00035225, "MEAN_MOTION_DDOT": 0}, "tle": {"line1": "1 33960U 97051BV  25336.65886972  .00035225  00000+0  41783-2 0  9994", "line2": "2 33960  86.2528 294.2638 0006943  75.6151  98.8590 14.84325358887178"}}, "geometry": {"type": "Point", "coordinates": [-70.68100740704244, -51.03027812117863]}}, {"type": "Feature", "properties": {"norad_id": 33966, "name": "IRIDIUM 33 DEB", "group": "iridium-33-debris", "lat": 27.4679578434548, "lon": 51.96059952594587, "alt_km": 730.4998463194479, "timestamp": "2025-12-03T06:58:43.626507+00:00", "meta": {"OBJECT_NAME": "IRIDIUM 33 DEB", "OBJECT_ID": "1997-051CB", "EPOCH": "2025-12-02T18:10:35.020128", "MEAN_MOTION": 14.49523607, "ECCENTRICITY": 0.0006332, "INCLINATION": 86.3932, "RA_OF_ASC_NODE": 50.3103, "ARG_OF_PERICENTER": 224.6219, "MEAN_ANOMALY": 261.1638, "EPHEMERIS_TYPE": 0, "CLASSIFICATION_TYPE": "U", "NORAD_CAT_ID": 33966, "ELEMENT_SET_NO": 999, "REV_AT_EPOCH": 88297, "BSTAR": 0.0008108, "MEAN_MOTION_DOT": 3.127e-05, "MEAN_MOTION_DDOT": 0}, "tle": {"line1": "1 33966U 97051CB  25336.75734977  .00003127  00000+0  81080-3 0  9999", "line2": "2 33966  86.3932  50.3103 0006332 224.6219 261.1638 14.49523607882974"}}, "geometry": {"type": "Point", "coordinates": [51.96059952594587, 27.4679578434548]}}, {"type": "Feature", "properties": {"norad_id": 34071, "name": "IRIDIUM 33 DEB", "group": "iridium-33-debris", "lat": 80.85518159408768, "lon": 178.55185906653074, "alt_km": 714.760868781982, "timestamp": "2025-12-03T06:58:43.626517+00:00", "meta": {"OBJECT_NAME": "IRIDIUM 33 DEB", "OBJECT_ID": "1997-051CE", "EPOCH": "2025-12-02T15:36:51.458112", "MEAN_MOTION": 14.49390273, "ECCENTRICITY": 0.0009443, "INCLINATION": 86.3468, "RA_OF_ASC_NODE": 22.2133, "ARG_OF_PERICENTER": 134.9637, "MEAN_ANOMALY": 225.2334, "EPHEMERIS_TYPE": 0, "CLASSIFICATION_TYPE": "U", "NORAD_CAT_ID": 34071, "ELEMENT_SET_NO": 999, "REV_AT_EPOCH": 88188, "BSTAR": 0.00080981, "MEAN_MOTION_DOT": 3.116e-05, "MEAN_MOTION_DDOT": 0}, "tle": {"line1": "1 34071U 97051CE  25336.65059558  .00003116  00000+0  80981-3 0  9998", "line2": "2 34071  86.3468  22.2133 0009443 134.9637 225.2334 14.49390273881884"}}, "geometry": {"type": "Point", "coordinates": [178.55185906653074, 80.85518159408768]}}]}